STARLINK-6308           
1 56534C 23065AH  26105.52270833  .00010527  00000+0  39113-3 0  1056
2 56534  43.0024 350.0864 0001593 264.1480 285.8994 15.26735548    19
STARLINK-6309           
1 56535C 23065AJ  26105.55256944 -.00003815  00000+0 -14176-3 0  1053
2 56535  43.0031  18.3231 0001462 258.0997 170.6215 15.26741150    13
STARLINK-6312           
1 56536C 23065AK  26105.56368056  .00000568  00000+0  21638-4 0  1055
2 56536  43.0050  18.3820 0001735 268.1478 171.8044 15.25910909    10
STARLINK-6311           
1 56537C 23065AL  26105.53381944 -.00013716  00000+0 -50958-3 0  1051
2 56537  43.0013  18.3509 0001026 253.5139 104.5240 15.26749730    13
STARLINK-6314           
1 56538C 23065AM  26105.58104167  .00022060  00000+0  81973-3 0  1058
2 56538  43.0036 349.6704 0001723 261.2803 284.8155 15.26726128    17
STARLINK-6135           
1 56539C 23065AN  26105.55187500 -.00005065  00000+0 -18818-3 0  1054
2 56539  43.0045  18.5129 0001681 265.3251  83.1118 15.26743007    10
STARLINK-6136           
1 56540C 23065AP  26105.55673611 -.00010689  00000+0 -40728-3 0  1052
2 56540  43.0045  18.5971 0001685 261.0951  66.7821 15.25912828    17
STARLINK-6249           
1 56541C 23065AQ  26105.59284722  .00011047  00000+0  40020-3 0  1050
2 56541  43.0041  15.4333 0001524 260.5391  76.9778 15.27565774    16
STARLINK-6266           
1 56542C 23065AR  26105.59354167  .00009045  00000+0  33612-3 0  1056
2 56542  43.0045  18.2827 0001657 265.5899 308.4599 15.26730748    13
STARLINK-6226           
1 56544C 23065AT  26105.53659722 -.00011872  00000+0 -43001-3 0  1053
2 56544  43.0039  15.1353 0002087 271.8769  17.6879 15.27583016    17
STARLINK-6086           
1 56545C 23065AU  26105.52687500 -.00012820  00000+0 -47614-3 0  1056
2 56545  43.0019  15.4736 0001564 252.9072 218.2069 15.26760033    15
STARLINK-6187           
1 56546C 23065AV  26105.54770833 -.00005500  00000+0 -20435-3 0  1050
2 56546  43.0017  15.5062 0001068 244.9309 277.1353 15.26742938    14
STARLINK-6291           
1 56547C 23065AW  26105.59354167  .00014367  00000+0  52047-3 0  1057
2 56547  43.0013  15.0868 0001084 252.2157 230.6084 15.27564544    12
STARLINK-6244           
1 56548C 23065AX  26105.58034722  .00009925  00000+0  35945-3 0  1051
2 56548  43.0049  15.5157 0001524 265.7087 355.8262 15.27576074    17
STARLINK-6263           
1 56549C 23065AY  26105.55395833 -.00001462  00000+0 -54311-4 0  1051
2 56549  43.0017  15.2833 0001259 249.7071  26.0847 15.26740165    10
STARLINK-6255           
1 56550C 23065AZ  26105.59145833  .00018849  00000+0  70046-3 0  1057
2 56550  43.0043  15.4257 0001381 248.5916  85.3759 15.26725971    12
STARLINK-6199           
1 56551C 23065BA  26105.57618056  .00011928  00000+0  43211-3 0  1053
2 56551  43.0011  15.3297 0001268 252.7583  70.8180 15.27567258    12
STARLINK-5802           
1 56552C 23065BB  26105.51298611 -.00099652  00000+0 -36090-2 0  1057
2 56552  43.0028  15.7903 0001253 254.8992  38.2886 15.27631808    14
STARLINK-6074           
1 56553C 23065BC  26105.54493056 -.00008225  00000+0 -29786-3 0  1052
2 56553  43.0021  15.2536 0001228 235.8670  21.6559 15.27586585    13
STARLINK-6295           
1 56554C 23065BD  26105.52548611 -.00020202  00000+0 -73181-3 0  1056
2 56554  43.0043  15.7713 0001385 261.4785  79.3125 15.27585147    18
STARLINK-6252           
1 56555C 23065BE  26105.60048611  .00020253  00000+0  75225-3 0  1056
2 56555  43.0036  14.7162 0001938 267.6251  34.6486 15.26741139    16
STARLINK-5302           
1 56556C 23065BF  26105.54701389 -.00021669  00000+0 -80522-3 0  1058
2 56556  43.0021  15.2385 0001500 262.3344  10.2142 15.26746695    15
STARLINK-6265           
1 56557C 23065BG  26105.59562500  .00013881  00000+0  50288-3 0  1055
2 56557  43.0013  15.1669 0001068 248.6027 203.2472 15.27565657    13
STARLINK-6286           
1 56558C 23065BH  26105.54701389 -.00015337  00000+0 -58437-3 0  1055
2 56558  43.0046  18.6661 0001392 264.4274 356.5335 15.25916768    11
STARLINK-30122          
1 56688C 23067A   26105.58173611 -.00035525  00000+0 -12869-2 0  1055
2 56688  43.0011  69.7087 0001166 271.4117 303.8474 15.27591194    12
STARLINK-30129          
1 56689C 23067B   26105.54701389 -.00142370  00000+0 -52794-2 0  1059
2 56689  43.0012  72.7704 0001509 272.0921 343.9492 15.26875882    18
STARLINK-30124          
1 56690C 23067C   26105.59631944  .00369700  00000+0  13762-1 0  1052
2 56690  43.0007  72.8725 0001692 286.5582  84.4993 15.26495416    18
STARLINK-30036          
1 56692C 23067E   26105.52270833 -.00015820  00000+0 -58798-3 0  1056
2 56692  43.0011  73.1498 0001508 271.4075 120.1305 15.26739080    15
STARLINK-30067          
1 56693C 23067F   26105.53659722 -.00013719  00000+0 -50983-3 0  1059
2 56693  43.0010  73.0763 0001531 279.7125 185.7796 15.26742209    10
STARLINK-30126          
1 56694C 23067G   26105.60048611 -.00065713  00000+0 -23803-2 0  1058
2 56694  43.0017  65.8341 0001182 257.0332 228.4837 15.27609264    15
STARLINK-30121          
1 56695C 23067H   26105.56576389  .00737430  00000+0  27604-1 0  1054
2 56695  43.0009  72.9109 0001792 280.1861 337.8045 15.26129251    17
STARLINK-30130          
1 56697C 23067K   26105.56715278 -.00032894  00000+0 -11909-2 0  1054
2 56697  43.0011  62.5518 0001067 249.0611  78.5140 15.27608383    17
STARLINK-30068          
1 56698C 23067L   26105.55326389 -.00064072  00000+0 -23206-2 0  1051
2 56698  43.0023  51.6940 0001431 263.0364 199.4334 15.27611962    10
STARLINK-30127          
1 56699C 23067M   26105.51229167  .00851500  00000+0  31945-1 0  1050
2 56699  43.0008  73.2082 0001757 284.8945  48.5838 15.25998858    11
STARLINK-30053          
1 56700C 23067N   26105.53381944 -.00053371  00000+0 -19331-2 0  1055
2 56700  43.0049  63.0344 0001362 265.3037 118.4827 15.27605353    17
STARLINK-30125          
1 56701C 23067P   26105.59979167 -.00068547  00000+0 -24830-2 0  1053
2 56701  43.0047  62.6276 0001234 262.5550 138.6149 15.27609145    16
STARLINK-30117          
1 56702C 23067Q   26105.55395833 -.00025885  00000+0 -93770-3 0  1050
2 56702  43.0014  69.8689 0001288 273.1467 135.0548 15.27586166    13
STARLINK-30132          
1 56703C 23067R   26105.55881944 -.00027082  00000+0 -10059-2 0  1053
2 56703  43.0041  65.7665 0001575 278.0693 106.7385 15.26766297    15
STARLINK-30066          
1 56704C 23067S   26105.59840278 -.00026995  00000+0 -97789-3 0  1051
2 56704  43.0019  62.4125 0000669 257.3473 221.0793 15.27587591    18
STARLINK-30080          
1 56705C 23067T   26105.54562500 -.00032258  00000+0 -11683-2 0  1053
2 56705  43.0033  54.9160 0001371 269.9663 273.3811 15.27595599    19
STARLINK-30079          
1 56706C 23067U   26105.56506944  .00240850  00000+0  11588-1 0  1056
2 56706  43.0007  72.2055 0001760 282.6194 279.7920 15.17882647    13
STARLINK-30070          
1 56707C 23067V   26105.58590278 -.00073508  00000+0 -26626-2 0  1058
2 56707  43.0052  62.7533 0001425 264.0011  39.4747 15.27613989    19
STARLINK-30071          
1 56708C 23067W   26105.60604167 -.00067093  00000+0 -24932-2 0  1055
2 56708  43.0043  66.1528 0001376 263.6347 104.2409 15.26769173    16
STARLINK-30085          
1 56709C 23067X   26105.56506944 -.00033778  00000+0 -12238-2 0  1054
2 56709  43.0008  62.5129 0001359 272.0777  65.2692 15.27586328    17
STARLINK-6197           
1 56767C 23078A   26105.55256944 -.00045384  00000+0 -22076-2 0  1058
2 56767  69.9897 253.9116 0002870 149.1288 295.2793 15.18319176    18
STARLINK-6198           
1 56768C 23078B   26105.52548611 -.00043260  00000+0 -36252-2 0  1053
2 56768  70.0017 231.4389 0003324 269.9936 131.4437 14.98353282    14
STARLINK-6342           
1 56770C 23078D   26105.51020833 -.00014830  00000+0 -12425-2 0  1053
2 56770  69.9998 271.6188 0002741 266.8228  48.7716 14.98346694    16
STARLINK-6275           
1 56772C 23078F   26105.56645833 -.00038612  00000+0 -32354-2 0  1050
2 56772  69.9998 271.4494 0002985 266.5007  15.8098 14.98355449    14
STARLINK-6296           
1 56773C 23078G   26105.58173611 -.00004760  00000+0 -39894-3 0  1057
2 56773  70.0026 211.6044 0003302 271.2724 254.6272 14.98330037    13
STARLINK-6190           
1 56774C 23078H   26105.54909722 -.00036054  00000+0 -30208-2 0  1054
2 56774  69.9999 271.6154 0003254 265.9145 170.2490 14.98356777    15
STARLINK-6292           
1 56775C 23078J   26105.52618056 -.00035610  00000+0 -29843-2 0  1050
2 56775  70.0025 211.7196 0003263 270.1568 338.6745 14.98346855    16
STARLINK-6274           
1 56776C 23078K   26105.51229167 -.00043907  00000+0 -36792-2 0  1050
2 56776  70.0017 231.7906 0003367 268.9661 128.6958 14.98355326    19
STARLINK-5582           
1 56777C 23078L   26105.60673611 -.00036484  00000+0 -30575-2 0  1053
2 56777  70.0004 251.5724 0002743 264.6536 146.0381 14.98350519    18
STARLINK-6304           
1 56778C 23078M   26105.57618056 -.00030187  00000+0 -25297-2 0  1051
2 56778  70.0016 231.6040 0003230 269.7238 134.9706 14.98347512    15
STARLINK-6231           
1 56779C 23078N   26105.59215278 -.00020103  00000+0 -16849-2 0  1053
2 56779  70.0016 231.4115 0003268 272.0267 353.8557 14.98336915    18
STARLINK-5963           
1 56780C 23078P   26105.47687500 -.00026245  00000+0 -21994-2 0  1053
2 56780  70.0004 251.4954 0003101 267.2231 184.9463 14.98344538    12
STARLINK-5989           
1 56781C 23078Q   26105.56854167 -.00043969  00000+0 -36842-2 0  1059
2 56781  70.0006 251.5417 0002730 269.7459  47.5276 14.98360118    14
STARLINK-6352           
1 56782C 23078R   26105.52756944 -.00041486  00000+0 -34765-2 0  1054
2 56782  70.0015 231.7011 0003386 268.8170 256.2323 14.98352801    15
STARLINK-6357           
1 56783C 23078S   26105.52965278 -.00038537  00000+0 -32295-2 0  1056
2 56783  70.0014 231.6456 0003416 268.4252 312.8756 14.98349482    18
